{\n  "type": "FeatureCollection",\n  "features": [\n    {\n      "type": "Feature",\n      "properties": {\n        "name": "Sampling Location 1",\n        "description": "Location for water sampling.",\n        "type": "Sampling Location"\n      },\n      "geometry": {\n        "type": "Point",\n        "coordinates": [39.6513, -4.0511]  \n      }\n    },\n    {\n      "type": "Feature",\n      "properties": {\n        "name": "Pollution Zone A",\n        "description": "High pollution area.",\n        "type": "Pollution Zone"\n      },\n      "geometry": {\n        "type": "Polygon",\n        "coordinates": [\n          [\n            [39.650, -4.050],\n            [39.655, -4.050],\n            [39.655, -4.055],\n            [39.650, -4.055],\n            [39.650, -4.050]\n          ]\n        ]\n      }\n    },\n    {\n      "type": "Feature",\n      "properties": {\n        "name": "Port Boundary",\n        "description": "Boundary of Mombasa Port.",\n        "type": "Port Boundary"\n      },\n      "geometry": {\n        "type": "Polygon",\n        "coordinates": [\n          [\n            [39.645, -4.060],\n            [39.670, -4.060],\n            [39.670, -4.045],\n            [39.645, -4.045],\n            [39.645, -4.060]  \n          ]\n        ]\n      }\n    }\n  ]\n}